NORAD_CAT_ID,OBJECT_NAME,OBJECT_TYPE,EPOCH,MEAN_MOTION,ECCENTRICITY,INCLINATION,RA_OF_ASC_NODE,ARG_OF_PERICENTER,MEAN_ANOMALY,BSTAR,MEAN_MOTION_DOT,MEAN_MOTION_DDOT,TLE_LINE0,TLE_LINE1,TLE_LINE2,SEMIMAJOR_AXIS,PERIOD,APOGEE,PERIGEE,DECAYED
54051.0,STARLINK-5195,PAYLOAD,2022-11-28 00:00:00,15.27967448,0.0001749,53.2172,321.4937,34.7584,299.613,-0.047699,-0.01212737,0.0,0 STARLINK-5195,1 54051U 22136A   22332.00001157 -.01212737  00000-0 -47699-1 0  9996,2 54051  53.2172 321.4937 0001749  34.7584 299.6130 15.27967448  6502,6860.026,94.243,483.091,480.691,0.0
54051.0,STARLINK-5195,PAYLOAD,2022-11-28 22:00:01,15.25611235,0.0001721999999999,53.2168,317.2638,34.7164,300.8787,-0.051312,-0.01213995,0.0,0 STARLINK-5195,1 54051U 22136A   22332.91668981 -.01213995  00000-0 -51312-1 0  9994,2 54051  53.2168 317.2638 0001722  34.7164 300.8787 15.25611235  1307,6867.0880000000025,94.388,490.135,487.77,0.0
54051.0,STARLINK-5195,PAYLOAD,2022-11-29 14:00:01,15.23920831,0.0001835,53.2165,314.198,31.1468,5.8425,-0.055594,-0.01247045,0.0,0 STARLINK-5195,1 54051U 22136A   22333.58335648 -.01247045  00000-0 -55594-1 0  9998,2 54051  53.2165 314.1980 0001835  31.1468   5.8425 15.23920831  1307,6872.165,94.493,495.291,492.769,0.0
54051.0,STARLINK-5195,PAYLOAD,2022-11-29 22:00:00,15.23045356,0.0001743,53.2166,312.6664,37.5077,28.5854,-0.055762,-0.01220756,0.0,0 STARLINK-5195,1 54051U 22136A   22333.91667824 -.01220756  00000-0 -55762-1 0  9996,2 54051  53.2166 312.6664 0001743  37.5077  28.5854 15.23045356  6790,6874.7980000000025,94.547,497.861,495.465,0.0
54051.0,STARLINK-5195,PAYLOAD,2022-11-30 14:00:01,15.213204,0.0001896,53.2173,309.6117,37.0467,84.3418,-0.057947,-0.01206539,0.0,0 STARLINK-5195,1 54051U 22136A   22334.58335648 -.01206539  00000-0 -57947-1 0  9996,2 54051  53.2173 309.6117 0001896  37.0467  84.3418 15.21320400  1306,6879.994000000002,94.655,503.163,500.554,0.0
54051.0,STARLINK-5195,PAYLOAD,2022-11-30 22:00:00,15.20463476,0.0001858,53.2176,308.0863,41.6568,105.7367,-0.059411,-0.01206204,0.0,0 STARLINK-5195,1 54051U 22136A   22334.91667824 -.01206204  00000-0 -59411-1 0  9994,2 54051  53.2176 308.0863 0001858  41.6568 105.7367 15.20463476  6958,6882.579000000002,94.708,505.722,503.165,0.0
54051.0,STARLINK-5195,PAYLOAD,2022-12-01 14:00:01,15.18749419,0.0001636,53.2174,305.0444,53.5385,142.9009,-0.062503,-0.01206834,0.0,0 STARLINK-5195,1 54051U 22136A   22335.58334491 -.01206834  00000-0 -62503-1 0  9994,2 54051  53.2174 305.0444 0001636  53.5385 142.9009 15.18749419  1302,6887.755999999999,94.815,510.74800000000016,508.494,0.0
54051.0,STARLINK-5195,PAYLOAD,2022-12-01 22:00:00,15.1793509,0.0001832,53.2166,303.526,40.8094,178.5852,-0.06722,-0.01262519,0.0,0 STARLINK-5195,1 54051U 22136A   22335.91667824 -.01262519  00000-0 -67220-1 0  9993,2 54051  53.2166 303.5260 0001832  40.8094 178.5852 15.17935090  7102,6890.219,94.866,513.347,510.822,0.0
54051.0,STARLINK-5195,PAYLOAD,2022-12-02 14:00:01,15.1620161,0.0001647,53.2166,300.4959,44.1947,218.0771,-0.069258,-0.0123942,0.0,0 STARLINK-5195,1 54051U 22136A   22336.58334491 -.01239420  00000-0 -69258-1 0  9996,2 54051  53.2166 300.4959 0001647  44.1947 218.0771 15.16201610  1300,6895.47,94.974,518.471,516.1990000000002,0.0
54051.0,STARLINK-5195,PAYLOAD,2022-12-02 16:00:00,15.15963487,0.0001581,53.2171,300.1168,38.7102,318.6425,-0.0677379999999999,-0.01206822,0.0,0 STARLINK-5195,1 54051U 22136A   22336.66667824 -.01206822  00000-0 -67738-1 0  9995,2 54051  53.2171 300.1168 0001581  38.7102 318.6425 15.15963487  7219,6896.191999999999,94.989,519.1469999999998,516.967,0.0
54051.0,STARLINK-5195,PAYLOAD,2022-12-02 22:00:00,15.1533144,0.0001753,53.2167,298.9826,40.6528,241.5132,-0.069759,-0.0121948,0.0,0 STARLINK-5195,1 54051U 22136A   22336.91667824 -.01219480  00000-0 -69759-1 0  9992,2 54051  53.2167 298.9826 0001753  40.6528 241.5132 15.15331440  1305,6898.11,95.029,521.184,518.765,0.0
54051.0,STARLINK-5195,PAYLOAD,2022-12-03 14:00:01,15.13623008,0.0001599,53.2166,295.9645,40.8011,278.0486,-0.07389,-0.01229547,0.0,0 STARLINK-5195,1 54051U 22136A   22337.58334491 -.01229547  00000-0 -73890-1 0  9993,2 54051  53.2166 295.9645 0001599  40.8011 278.0486 15.13623008  7357,6903.299,95.136,526.268,524.06,0.0
54051.0,STARLINK-5195,PAYLOAD,2022-12-03 22:00:00,15.12772599,0.0001656,53.2166,294.4573,39.4054,296.2385,-0.0761309999999999,-0.01236209,0.0,0 STARLINK-5195,1 54051U 22136A   22337.91667824 -.01236209  00000-0 -76131-1 0  9993,2 54051  53.2166 294.4573 0001656  39.4054 296.2385 15.12772599  1304,6905.886,95.189,528.895,526.607,0.0
54051.0,STARLINK-5195,PAYLOAD,2022-12-04 14:00:01,15.11055769,0.0001619,53.2166,291.4509,38.4608,327.6915,-0.079828,-0.01235421,0.0,0 STARLINK-5195,1 54051U 22136A   22338.58334491 -.01235421  00000-0 -79828-1 0  9999,2 54051  53.2166 291.4509 0001619  38.4608 327.6915 15.11055769  1303,6911.116,95.298,534.1,531.862,0.0
54051.0,STARLINK-5195,PAYLOAD,2022-12-04 22:00:00,15.10197177,0.0001773,53.2165,289.9499,33.7884,346.0685,-0.080829,-0.01222576,0.0,0 STARLINK-5195,1 54051U 22136A   22338.91667824 -.01222576  00000-0 -80829-1 0  9995,2 54051  53.2165 289.9499 0001773  33.7884 346.0685 15.10197177  7558,6913.735,95.352,536.826,534.374,0.0
54051.0,STARLINK-5195,PAYLOAD,2022-12-05 06:00:00,15.0922215,0.0001684,53.2168,288.4534,42.6248,349.9231,-0.033616,-0.00509402,0.0,0 STARLINK-5195,1 54051U 22136A   22339.25001157 -.00509402  00000-0 -33616-1 0  9991,2 54051  53.2168 288.4534 0001684  42.6248 349.9231 15.09222150  7602,6916.7130000000025,95.413,539.742,537.413,0.0
54051.0,STARLINK-5195,PAYLOAD,2022-12-05 14:00:01,15.08894909,0.0001561,53.213,286.957,47.2918,357.0959,-0.0037703,-0.00059884,0.0,0 STARLINK-5195,1 54051U 22136A   22339.58335648 -.00059884  00000-0 -37703-2 0  9998,2 54051  53.2130 286.9570 0001561  47.2918 357.0959 15.08894909  1307,6917.7130000000025,95.434,540.6569999999998,538.498,0.0
54051.0,STARLINK-5195,PAYLOAD,2022-12-05 16:00:00,15.08847593,0.0001479,53.2131,286.5826,47.4267,89.8234,0.0016553,0.0002616,0.0,0 STARLINK-5195,1 54051U 22136A   22339.66667824  .00026160  00000-0  16553-2 0  9990,2 54051  53.2131 286.5826 0001479  47.4267  89.8234 15.08847593  7674,6917.857,95.437,540.745,538.6990000000002,0.0
54051.0,STARLINK-5195,PAYLOAD,2022-12-05 22:00:01,15.08874588,0.0001551,53.2141,285.46,50.4037,5.6144,9.475e-05,1.222e-05,0.0,0 STARLINK-5195,1 54051U 22136A   22339.91668981  .00001222  00000-0  94750-4 0  9992,2 54051  53.2141 285.4600 0001551  50.4037   5.6144 15.08874588  1307,6917.775,95.435,540.7130000000002,538.567,0.0
54051.0,STARLINK-5195,PAYLOAD,2022-12-06 14:00:01,15.08852359,0.000175,53.2139,282.4672,51.9046,27.3891,-0.0026452,-0.00042155,0.0,0 STARLINK-5195,1 54051U 22136A   22340.58335648 -.00042155  00000-0 -26452-2 0  9992,2 54051  53.2139 282.4672 0001750  51.9046  27.3891 15.08852359  1309,6917.843000000003,95.437,540.918,538.497,0.0
54051.0,STARLINK-5195,PAYLOAD,2022-12-06 16:00:00,15.08833293,0.0001706999999999,53.2138,282.0928,52.8592,119.2769,-0.00077675,-0.00012627,0.0,0 STARLINK-5195,1 54051U 22136A   22340.66667824 -.00012627  00000-0 -77675-3 0  9990,2 54051  53.2138 282.0928 0001707  52.8592 119.2769 15.08833293  7820,6917.901,95.438,540.947,538.585,0.0
54051.0,STARLINK-5195,PAYLOAD,2022-12-06 22:00:00,15.08835269,0.0001802,53.214,280.9708,55.1807,35.6349,-0.0029913,-0.00047575,0.0,0 STARLINK-5195,1 54051U 22136A   22340.91667824 -.00047575  00000-0 -29913-2 0  9999,2 54051  53.2140 280.9708 0001802  55.1807  35.6349 15.08835269  1304,6917.895,95.438,541.006,538.513,0.0
54051.0,STARLINK-5195,PAYLOAD,2022-12-07 14:00:01,15.08750546,0.0001779,53.2152,277.9774,46.9386,66.9966,0.0059226,0.00095011,0.0,0 STARLINK-5195,1 54051U 22136A   22341.58334491  .00095011  00000-0  59226-2 0  9990,2 54051  53.2152 277.9774 0001779  46.9386  66.9966 15.08750546  7963,6918.154,95.443,541.25,538.788,0.0
54051.0,STARLINK-5195,PAYLOAD,2022-12-07 22:00:00,15.08851743,0.0001771999999999,53.2144,276.4817,47.3544,78.104,0.00042836,6.538e-05,0.0,0 STARLINK-5195,1 54051U 22136A   22341.91667824  .00006538  00000-0  42836-3 0  9992,2 54051  53.2144 276.4817 0001772  47.3544  78.1040 15.08851743  1301,6917.844,95.437,540.935,538.484,0.0
54051.0,STARLINK-5195,PAYLOAD,2022-12-08 08:00:01,15.0885449,0.0001923,53.2143,274.6125,42.1005,187.8727,0.002892,0.00046058,0.0,0 STARLINK-5195,1 54051U 22136A   22342.33334491  .00046058  00000-0  28920-2 0  9998,2 54051  53.2143 274.6125 0001923  42.1005 187.8727 15.08854490  8078,6917.8359999999975,95.437,541.031,538.371,0.0
54051.0,STARLINK-5195,PAYLOAD,2022-12-08 14:00:01,15.088788699999998,0.0001786999999999,53.2147,273.4888,44.4334,104.2592,-0.00044874,-7.431e-05,0.0,0 STARLINK-5195,1 54051U 22136A   22342.58334491 -.00007431  00000-0 -44874-3 0  9996,2 54051  53.2147 273.4888 0001787  44.4334 104.2592 15.08878870  1303,6917.762,95.435,540.863,538.39,0.0
54051.0,STARLINK-5195,PAYLOAD,2022-12-08 22:00:01,15.08893241,0.0001788,53.2149,271.9925,46.1122,114.2793,-0.0032839,-0.00052249,0.0,0 STARLINK-5195,1 54051U 22136A   22342.91668981 -.00052249  00000-0 -32839-2 0  9991,2 54051  53.2149 271.9925 0001788  46.1122 114.2793 15.08893241  1308,6917.718000000003,95.434,540.82,538.346,0.0
54051.0,STARLINK-5195,PAYLOAD,2022-12-09 00:00:00,15.08889651,0.0001852,53.2148,271.619,43.7997,209.4356,-0.0047215,-0.00074754,0.0,0 STARLINK-5195,1 54051U 22136A   22343.00001157 -.00074754  00000-0 -47215-2 0  9997,2 54051  53.2148 271.6190 0001852  43.7997 209.4356 15.08889651  8177,6917.729,95.434,540.875,538.312,0.0
54051.0,STARLINK-5195,PAYLOAD,2022-12-09 14:00:01,15.08779632,0.0001795,53.2149,268.9995,43.9315,139.6185,0.00068572,0.00010624,0.0,0 STARLINK-5195,1 54051U 22136A   22343.58334491  .00010624  00000-0  68572-3 0  9994,2 54051  53.2149 268.9995 0001795  43.9315 139.6185 15.08779632  1301,6918.065,95.441,541.172,538.688,0.0
